{"type": "FeatureCollection", "features": [{"type": "Feature", "properties": {"norad_id": 28054, "name": "DMSP 5D-3 F16 (USA 172)", "group": "weather", "lat": -50.01815444982331, "lon": -177.5829132941072, "alt_km": 848.9249577037699, "timestamp": "2025-12-21T18:54:58.135454+00:00", "meta": {"OBJECT_NAME": "DMSP 5D-3 F16 (USA 172)", "OBJECT_ID": "2003-048A", "EPOCH": "2025-12-21T14:56:59.126784", "MEAN_MOTION": 14.14427158, "ECCENTRICITY": 0.00062735, "INCLINATION": 99.0038, "RA_OF_ASC_NODE": 13.1495, "ARG_OF_PERICENTER": 292.5269, "MEAN_ANOMALY": 177.2775, "EPHEMERIS_TYPE": 0, "CLASSIFICATION_TYPE": "U", "NORAD_CAT_ID": 28054, "ELEMENT_SET_NO": 999, "REV_AT_EPOCH": 14438, "BSTAR": 7.00682e-05, "MEAN_MOTION_DOT": 8.9e-07, "MEAN_MOTION_DDOT": 0}, "tle": {"line1": "1 28054U 03048A   25355.62290656  .00000089  00000+0  70068-4 0  9991", "line2": "2 28054  99.0038  13.1495 0006273 292.5269 177.2775 14.14427158144389"}}, "geometry": {"type": "Point", "coordinates": [-177.5829132941072, -50.01815444982331]}}, {"type": "Feature", "properties": {"norad_id": 28912, "name": "METEOSAT-9 (MSG-2)", "group": "weather", "lat": 0.6560804245944681, "lon": 59.9561928899655, "alt_km": 35718.178628561, "timestamp": "2025-12-21T18:54:58.135503+00:00", "meta": {"OBJECT_NAME": "METEOSAT-9 (MSG-2)", "OBJECT_ID": "2005-049B", "EPOCH": "2025-12-20T18:34:58.766592", "MEAN_MOTION": 1.00265537, "ECCENTRICITY": 0.01042854, "INCLINATION": 8.9429, "RA_OF_ASC_NODE": 55.8777, "ARG_OF_PERICENTER": 282.8799, "MEAN_ANOMALY": 74.1046, "EPHEMERIS_TYPE": 0, "CLASSIFICATION_TYPE": "U", "NORAD_CAT_ID": 28912, "ELEMENT_SET_NO": 999, "REV_AT_EPOCH": 520, "BSTAR": 0, "MEAN_MOTION_DOT": 1.08e-06, "MEAN_MOTION_DDOT": 0}, "tle": {"line1": "1 28912U 05049B   25354.77429128  .00000108  00000+0  00000+0 0  9996", "line2": "2 28912   8.9429  55.8777 0104285 282.8799  74.1046  1.00265537  5208"}}, "geometry": {"type": "Point", "coordinates": [59.9561928899655, 0.6560804245944681]}}, {"type": "Feature", "properties": {"norad_id": 29522, "name": "DMSP 5D-3 F17 (USA 191)", "group": "weather", "lat": -7.176466941176611, "lon": 179.87906267754252, "alt_km": 839.428027653249, "timestamp": "2025-12-21T18:54:58.135522+00:00", "meta": {"OBJECT_NAME": "DMSP 5D-3 F17 (USA 191)", "OBJECT_ID": "2006-050A", "EPOCH": "2025-12-21T12:56:33.785088", "MEAN_MOTION": 14.14923292, "ECCENTRICITY": 0.00097723, "INCLINATION": 98.739, "RA_OF_ASC_NODE": 0.7451, "ARG_OF_PERICENTER": 198.3974, "MEAN_ANOMALY": 161.6848, "EPHEMERIS_TYPE": 0, "CLASSIFICATION_TYPE": "U", "NORAD_CAT_ID": 29522, "ELEMENT_SET_NO": 999, "REV_AT_EPOCH": 98729, "BSTAR": 8.7791057e-05, "MEAN_MOTION_DOT": 1.26e-06, "MEAN_MOTION_DDOT": 0}, "tle": {"line1": "1 29522U 06050A   25355.53927992  .00000126  00000+0  87791-4 0  9991", "line2": "2 29522  98.7390   0.7451 0009772 198.3974 161.6848 14.14923292987297"}}, "geometry": {"type": "Point", "coordinates": [179.87906267754252, -7.176466941176611]}}, {"type": "Feature", "properties": {"norad_id": 32958, "name": "FENGYUN 3A", "group": "weather", "lat": 49.79974758196759, "lon": -75.27844992040461, "alt_km": 825.9034180699155, "timestamp": "2025-12-21T18:54:58.135537+00:00", "meta": {"OBJECT_NAME": "FENGYUN 3A", "OBJECT_ID": "2008-026A", "EPOCH": "2025-12-21T13:36:12.790944", "MEAN_MOTION": 14.19517107, "ECCENTRICITY": 0.00076548, "INCLINATION": 98.6709, "RA_OF_ASC_NODE": 294.9081, "ARG_OF_PERICENTER": 281.9296, "MEAN_ANOMALY": 78.1022, "EPHEMERIS_TYPE": 0, "CLASSIFICATION_TYPE": "U", "NORAD_CAT_ID": 32958, "ELEMENT_SET_NO": 999, "REV_AT_EPOCH": 91020, "BSTAR": 5.6290084e-05, "MEAN_MOTION_DOT": 7.5e-07, "MEAN_MOTION_DDOT": 0}, "tle": {"line1": "1 32958U 08026A   25355.56681471  .00000075  00000+0  56290-4 0  9998", "line2": "2 32958  98.6709 294.9081 0007654 281.9296  78.1022 14.19517107910208"}}, "geometry": {"type": "Point", "coordinates": [-75.27844992040461, 49.79974758196759]}}, {"type": "Feature", "properties": {"norad_id": 35491, "name": "GOES 14", "group": "weather", "lat": 0.11185060696420875, "lon": -101.12312782946671, "alt_km": 35832.924124993566, "timestamp": "2025-12-21T18:54:58.135551+00:00", "meta": {"OBJECT_NAME": "GOES 14", "OBJECT_ID": "2009-033A", "EPOCH": "2025-12-21T12:09:15.385248", "MEAN_MOTION": 1.00096928, "ECCENTRICITY": 5.358e-05, "INCLINATION": 1.2252, "RA_OF_ASC_NODE": 85.3172, "ARG_OF_PERICENTER": 184.7328, "MEAN_ANOMALY": 247.3042, "EPHEMERIS_TYPE": 0, "CLASSIFICATION_TYPE": "U", "NORAD_CAT_ID": 35491, "ELEMENT_SET_NO": 999, "REV_AT_EPOCH": 481, "BSTAR": 0, "MEAN_MOTION_DOT": 2.4e-07, "MEAN_MOTION_DDOT": 0}, "tle": {"line1": "1 35491U 09033A   25355.50642807  .00000024  00000+0  00000+0 0  9993", "line2": "2 35491   1.2252  85.3172 0000535 184.7328 247.3042  1.00096928  4818"}}, "geometry": {"type": "Point", "coordinates": [-101.12312782946671, 0.11185060696420875]}}, {"type": "Feature", "properties": {"norad_id": 35951, "name": "DMSP 5D-3 F18 (USA 210)", "group": "weather", "lat": 48.96227823488022, "lon": -38.207996298223065, "alt_km": 830.2168813663848, "timestamp": "2025-12-21T18:54:58.135590+00:00", "meta": {"OBJECT_NAME": "DMSP 5D-3 F18 (USA 210)", "OBJECT_ID": "2009-057A", "EPOCH": "2025-12-21T13:35:24.927936", "MEAN_MOTION": 14.14774744, "ECCENTRICITY": 0.00118301, "INCLINATION": 98.8844, "RA_OF_ASC_NODE": 331.9233, "ARG_OF_PERICENTER": 39.4817, "MEAN_ANOMALY": 320.7216, "EPHEMERIS_TYPE": 0, "CLASSIFICATION_TYPE": "U", "NORAD_CAT_ID": 35951, "ELEMENT_SET_NO": 999, "REV_AT_EPOCH": 83447, "BSTAR": 0.00014856151, "MEAN_MOTION_DOT": 2.42e-06, "MEAN_MOTION_DDOT": 0}, "tle": {"line1": "1 35951U 09057A   25355.56626074  .00000242  00000+0  14856-3 0  9994", "line2": "2 35951  98.8844 331.9233 0011830  39.4817 320.7216 14.14774744834475"}}, "geometry": {"type": "Point", "coordinates": [-38.207996298223065, 48.96227823488022]}}, {"type": "Feature", "properties": {"norad_id": 36411, "name": "EWS-G2 (GOES 15)", "group": "weather", "lat": -0.12497306684337525, "lon": 75.70834717463754, "alt_km": 35809.179967020216, "timestamp": "2025-12-21T18:54:58.135605+00:00", "meta": {"OBJECT_NAME": "EWS-G2 (GOES 15)", "OBJECT_ID": "2010-008A", "EPOCH": "2025-12-21T11:46:40.910592", "MEAN_MOTION": 1.00270942, "ECCENTRICITY": 0.00054535, "INCLINATION": 0.834, "RA_OF_ASC_NODE": 86.0823, "ARG_OF_PERICENTER": 177.9274, "MEAN_ANOMALY": 64.3316, "EPHEMERIS_TYPE": 0, "CLASSIFICATION_TYPE": "U", "NORAD_CAT_ID": 36411, "ELEMENT_SET_NO": 999, "REV_AT_EPOCH": 5785, "BSTAR": 0, "MEAN_MOTION_DOT": 6e-07, "MEAN_MOTION_DDOT": 0}, "tle": {"line1": "1 36411U 10008A   25355.49075128  .00000060  00000+0  00000+0 0  9994", "line2": "2 36411   0.8340  86.0823 0005453 177.9274  64.3316  1.00270942 57856"}}, "geometry": {"type": "Point", "coordinates": [75.70834717463754, -0.12497306684337525]}}, {"type": "Feature", "properties": {"norad_id": 36744, "name": "COMS 1", "group": "weather", "lat": 3.958852085946556, "lon": 142.4503370160199, "alt_km": 35788.13624696505, "timestamp": "2025-12-21T18:54:58.135619+00:00", "meta": {"OBJECT_NAME": "COMS 1", "OBJECT_ID": "2010-032A", "EPOCH": "2025-12-21T13:48:29.244672", "MEAN_MOTION": 1.00271671, "ECCENTRICITY": 7.342e-05, "INCLINATION": 4.3603, "RA_OF_ASC_NODE": 77.8986, "ARG_OF_PERICENTER": 208.332, "MEAN_ANOMALY": 139.4621, "EPHEMERIS_TYPE": 0, "CLASSIFICATION_TYPE": "U", "NORAD_CAT_ID": 36744, "ELEMENT_SET_NO": 999, "REV_AT_EPOCH": 4930, "BSTAR": 0, "MEAN_MOTION_DOT": -3.25e-06, "MEAN_MOTION_DDOT": 0}, "tle": {"line1": "1 36744U 10032A   25355.57533848 -.00000325  00000+0  00000+0 0  9992", "line2": "2 36744   4.3603  77.8986 0000734 208.3320 139.4621  1.00271671 49306"}}, "geometry": {"type": "Point", "coordinates": [142.4503370160199, 3.958852085946556]}}, {"type": "Feature", "properties": {"norad_id": 37214, "name": "FENGYUN 3B", "group": "weather", "lat": 14.935576942050995, "lon": 33.40851500155687, "alt_km": 832.3564037485557, "timestamp": "2025-12-21T18:54:58.135631+00:00", "meta": {"OBJECT_NAME": "FENGYUN 3B", "OBJECT_ID": "2010-059A", "EPOCH": "2025-12-21T15:58:22.369152", "MEAN_MOTION": 14.14792169, "ECCENTRICITY": 0.00216656, "INCLINATION": 98.9896, "RA_OF_ASC_NODE": 35.7051, "ARG_OF_PERICENTER": 332.4272, "MEAN_ANOMALY": 138.3698, "EPHEMERIS_TYPE": 0, "CLASSIFICATION_TYPE": "U", "NORAD_CAT_ID": 37214, "ELEMENT_SET_NO": 999, "REV_AT_EPOCH": 78232, "BSTAR": 3.7171085e-05, "MEAN_MOTION_DOT": 2.6e-07, "MEAN_MOTION_DDOT": 0}, "tle": {"line1": "1 37214U 10059A   25355.66553668  .00000026  00000+0  37171-4 0  9997", "line2": "2 37214  98.9896  35.7051 0021665 332.4272 138.3698 14.14792169782326"}}, "geometry": {"type": "Point", "coordinates": [33.40851500155687, 14.935576942050995]}}, {"type": "Feature", "properties": {"norad_id": 37849, "name": "SUOMI NPP", "group": "weather", "lat": 9.139028194106896, "lon": -68.37635057577005, "alt_km": 828.6595323516885, "timestamp": "2025-12-21T18:54:58.135642+00:00", "meta": {"OBJECT_NAME": "SUOMI NPP", "OBJECT_ID": "2011-061A", "EPOCH": "2025-12-17T23:31:21.474624", "MEAN_MOTION": 14.19515682, "ECCENTRICITY": 0.00023932, "INCLINATION": 98.7779, "RA_OF_ASC_NODE": 289.2746, "ARG_OF_PERICENTER": 111.1248, "MEAN_ANOMALY": 249.0184, "EPHEMERIS_TYPE": 0, "CLASSIFICATION_TYPE": "U", "NORAD_CAT_ID": 37849, "ELEMENT_SET_NO": 999, "REV_AT_EPOCH": 73273, "BSTAR": 4.8615036e-05, "MEAN_MOTION_DOT": 5.8e-07, "MEAN_MOTION_DDOT": 0}, "tle": {"line1": "1 37849U 11061A   25351.98010966  .00000058  00000+0  48615-4 0  9995", "line2": "2 37849  98.7779 289.2746 0002393 111.1248 249.0184 14.19515682732735"}}, "geometry": {"type": "Point", "coordinates": [-68.37635057577005, 9.139028194106896]}}]}